{
  "type": "FeatureCollection",
  "features": [
    {
      "type": "Feature",
      "properties": {
        "norad_id": 34492,
        "name": "IRIDIUM 33 DEB",
        "group": "iridium-33-debris",
        "lat": -64.77088552638115,
        "lon": 163.17264731323243,
        "alt_km": 677.6392688627957,
        "timestamp": "2025-12-10T04:57:30.007039+00:00",
        "meta_object_name": "IRIDIUM 33 DEB",
        "meta_object_id": "1997-051GH",
        "meta_epoch": "2025-12-09T11:35:07.823616",
        "meta_mean_motion": 14.25591238,
        "meta_eccentricity": 0.01894647,
        "meta_inclination": 86.4738,
        "meta_ra_of_asc_node": 335.9453,
        "meta_arg_of_pericenter": 248.7156,
        "meta_mean_anomaly": 243.5947,
        "meta_ephemeris_type": 0,
        "meta_classification_type": "U",
        "meta_norad_cat_id": 34492,
        "meta_element_set_no": 999,
        "meta_rev_at_epoch": 85012,
        "meta_bstar": 0.0075389978,
        "meta_mean_motion_dot": 0.00021601,
        "meta_mean_motion_ddot": 0,
        "tle_line1": "1 34492U 97051GH  25343.48272944  .00021601  00000+0  75390-2 0  9996",
        "tle_line2": "2 34492  86.4738 335.9453 0189464 248.7156 243.5947 14.25591238850127"
      },
      "geometry": {
        "type": "Point",
        "coordinates": [
          163.17264731323243,
          -64.77088552638115
        ]
      }
    },
    {
      "type": "Feature",
      "properties": {
        "norad_id": 34497,
        "name": "IRIDIUM 33 DEB",
        "group": "iridium-33-debris",
        "lat": 71.59454131377646,
        "lon": -137.79655589961826,
        "alt_km": 821.6642125963072,
        "timestamp": "2025-12-10T04:57:30.007050+00:00",
        "meta_object_name": "IRIDIUM 33 DEB",
        "meta_object_id": "1997-051GN",
        "meta_epoch": "2025-12-09T05:09:24.196032",
        "meta_mean_motion": 14.27438084,
        "meta_eccentricity": 0.0079165,
        "meta_inclination": 86.2781,
        "meta_ra_of_asc_node": 53.9075,
        "meta_arg_of_pericenter": 351.0726,
        "meta_mean_anomaly": 63.0332,
        "meta_ephemeris_type": 0,
        "meta_classification_type": "U",
        "meta_norad_cat_id": 34497,
        "meta_element_set_no": 999,
        "meta_rev_at_epoch": 86833,
        "meta_bstar": 0.0009704,
        "meta_mean_motion_dot": 2.479e-05,
        "meta_mean_motion_ddot": 0,
        "tle_line1": "1 34497U 97051GN  25343.21486338  .00002479  00000+0  97040-3 0  9995",
        "tle_line2": "2 34497  86.2781  53.9075 0079165 351.0726  63.0332 14.27438084868338"
      },
      "geometry": {
        "type": "Point",
        "coordinates": [
          -137.79655589961826,
          71.59454131377646
        ]
      }
    },
    {
      "type": "Feature",
      "properties": {
        "norad_id": 34508,
        "name": "IRIDIUM 33 DEB",
        "group": "iridium-33-debris",
        "lat": 14.62011402858326,
        "lon": -77.23172255963044,
        "alt_km": 719.4720271751585,
        "timestamp": "2025-12-10T04:57:30.007061+00:00",
        "meta_object_name": "IRIDIUM 33 DEB",
        "meta_object_id": "1997-051GZ",
        "meta_epoch": "2025-12-09T08:09:22.353120",
        "meta_mean_motion": 14.38378471,
        "meta_eccentricity": 0.00659121,
        "meta_inclination": 86.3702,
        "meta_ra_of_asc_node": 104.0845,
        "meta_arg_of_pericenter": 183.8965,
        "meta_mean_anomaly": 176.1729,
        "meta_ephemeris_type": 0,
        "meta_classification_type": "U",
        "meta_norad_cat_id": 34508,
        "meta_element_set_no": 999,
        "meta_rev_at_epoch": 87260,
        "meta_bstar": 0.0023049573,
        "meta_mean_motion_dot": 7.224e-05,
        "meta_mean_motion_ddot": 0,
        "tle_line1": "1 34508U 97051GZ  25343.33984205  .00007224  00000+0  23050-2 0  9999",
        "tle_line2": "2 34508  86.3702 104.0845 0065912 183.8965 176.1729 14.38378471872605"
      },
      "geometry": {
        "type": "Point",
        "coordinates": [
          -77.23172255963044,
          14.62011402858326
        ]
      }
    },
    {
      "type": "Feature",
      "properties": {
        "norad_id": 34521,
        "name": "IRIDIUM 33 DEB",
        "group": "iridium-33-debris",
        "lat": 63.61706857943688,
        "lon": -155.66957608033624,
        "alt_km": 676.7530178674606,
        "timestamp": "2025-12-10T04:57:30.007072+00:00",
        "meta_object_name": "IRIDIUM 33 DEB",
        "meta_object_id": "1997-051HN",
        "meta_epoch": "2025-12-09T10:22:36.054336",
        "meta_mean_motion": 14.63320774,
        "meta_eccentricity": 0.00012328,
        "meta_inclination": 86.3799,
        "meta_ra_of_asc_node": 32.0038,
        "meta_arg_of_pericenter": 237.8673,
        "meta_mean_anomaly": 122.2419,
        "meta_ephemeris_type": 0,
        "meta_classification_type": "U",
        "meta_norad_cat_id": 34521,
        "meta_element_set_no": 999,
        "meta_rev_at_epoch": 88424,
        "meta_bstar": 0.0013249324,
        "meta_mean_motion_dot": 6.86e-05,
        "meta_mean_motion_ddot": 0,
        "tle_line1": "1 34521U 97051HN  25343.43236174  .00006860  00000+0  13249-2 0  9994",
        "tle_line2": "2 34521  86.3799  32.0038 0001232 237.8673 122.2419 14.63320774884243"
      },
      "geometry": {
        "type": "Point",
        "coordinates": [
          -155.66957608033624,
          63.61706857943688
        ]
      }
    },
    {
      "type": "Feature",
      "properties": {
        "norad_id": 34525,
        "name": "IRIDIUM 33 DEB",
        "group": "iridium-33-debris",
        "lat": 58.38246925009762,
        "lon": -137.98919801805107,
        "alt_km": 738.9301823464739,
        "timestamp": "2025-12-10T04:57:30.007082+00:00",
        "meta_object_name": "IRIDIUM 33 DEB",
        "meta_object_id": "1997-051HS",
        "meta_epoch": "2025-12-09T15:47:29.903136",
        "meta_mean_motion": 14.42894832,
        "meta_eccentricity": 0.00067,
        "meta_inclination": 86.3728,
        "meta_ra_of_asc_node": 48.159,
        "meta_arg_of_pericenter": 102.4464,
        "meta_mean_anomaly": 50.9886,
        "meta_ephemeris_type": 0,
        "meta_classification_type": "U",
        "meta_norad_cat_id": 34525,
        "meta_element_set_no": 999,
        "meta_rev_at_epoch": 88043,
        "meta_bstar": 0.00063201,
        "meta_mean_motion_dot": 2.13e-05,
        "meta_mean_motion_ddot": 0,
        "tle_line1": "1 34525U 97051HS  25343.65798499  .00002130  00000+0  63201-3 0  9995",
        "tle_line2": "2 34525  86.3728  48.1590 0006700 102.4464  50.9886 14.42894832880430"
      },
      "geometry": {
        "type": "Point",
        "coordinates": [
          -137.98919801805107,
          58.38246925009762
        ]
      }
    },
    {
      "type": "Feature",
      "properties": {
        "norad_id": 34529,
        "name": "IRIDIUM 33 DEB",
        "group": "iridium-33-debris",
        "lat": 36.76172398101053,
        "lon": 39.214250238553916,
        "alt_km": 756.6119333054357,
        "timestamp": "2025-12-10T04:57:30.007092+00:00",
        "meta_object_name": "IRIDIUM 33 DEB",
        "meta_object_id": "1997-051HW",
        "meta_epoch": "2025-12-09T03:46:56.686656",
        "meta_mean_motion": 14.40611183,
        "meta_eccentricity": 0.00043514,
        "meta_inclination": 86.3644,
        "meta_ra_of_asc_node": 36.9388,
        "meta_arg_of_pericenter": 189.2574,
        "meta_mean_anomaly": 170.8546,
        "meta_ephemeris_type": 0,
        "meta_classification_type": "U",
        "meta_norad_cat_id": 34529,
        "meta_element_set_no": 999,
        "meta_rev_at_epoch": 88090,
        "meta_bstar": 0.00017454195,
        "meta_mean_motion_dot": 5.76e-06,
        "meta_mean_motion_ddot": 0,
        "tle_line1": "1 34529U 97051HW  25343.15760054  .00000576  00000+0  17454-3 0  9991",
        "tle_line2": "2 34529  86.3644  36.9388 0004351 189.2574 170.8546 14.40611183880907"
      },
      "geometry": {
        "type": "Point",
        "coordinates": [
          39.214250238553916,
          36.76172398101053
        ]
      }
    },
    {
      "type": "Feature",
      "properties": {
        "norad_id": 34538,
        "name": "IRIDIUM 33 DEB",
        "group": "iridium-33-debris",
        "lat": -35.32574902468777,
        "lon": -170.6896929242338,
        "alt_km": 768.4343811342669,
        "timestamp": "2025-12-10T04:57:30.007103+00:00",
        "meta_object_name": "IRIDIUM 33 DEB",
        "meta_object_id": "1997-051JF",
        "meta_epoch": "2025-12-09T19:53:16.217952",
        "meta_mean_motion": 14.42621939,
        "meta_eccentricity": 0.0033135,
        "meta_inclination": 86.2771,
        "meta_ra_of_asc_node": 6.8309,
        "meta_arg_of_pericenter": 337.9285,
        "meta_mean_anomaly": 76.1555,
        "meta_ephemeris_type": 0,
        "meta_classification_type": "U",
        "meta_norad_cat_id": 34538,
        "meta_element_set_no": 999,
        "meta_rev_at_epoch": 87714,
        "meta_bstar": 0.0015072,
        "meta_mean_motion_dot": 5.058e-05,
        "meta_mean_motion_ddot": 0,
        "tle_line1": "1 34538U 97051JF  25343.82865993  .00005058  00000+0  15072-2 0  9996",
        "tle_line2": "2 34538  86.2771   6.8309 0033135 337.9285  76.1555 14.42621939877141"
      },
      "geometry": {
        "type": "Point",
        "coordinates": [
          -170.6896929242338,
          -35.32574902468777
        ]
      }
    }
  ]
}